NORAD_CAT_ID,OBJECT_NAME,OBJECT_TYPE,EPOCH,MEAN_MOTION,ECCENTRICITY,INCLINATION,RA_OF_ASC_NODE,ARG_OF_PERICENTER,MEAN_ANOMALY,BSTAR,MEAN_MOTION_DOT,MEAN_MOTION_DDOT,TLE_LINE0,TLE_LINE1,TLE_LINE2,SEMIMAJOR_AXIS,PERIOD,APOGEE,PERIGEE,DECAYED
52373.0,STARLINK-3550,PAYLOAD,2023-08-18 05:36:40,15.08835949,0.0001488,53.2163,64.0526,92.7661,267.3502,3.4378e-05,2.59e-06,0.0,0 STARLINK-3550,1 52373U 22045AU  23230.23379696  .00000259  00000-0  34378-4 0  9993,2 52373  53.2163  64.0526 0001488  92.7661 267.3502 15.08835949 74858,6917.893,95.438,540.787,538.728,0.0
52373.0,STARLINK-3550,PAYLOAD,2023-08-19 05:27:27,15.0883245,0.0001407,53.2155,59.5932,83.9112,276.204,2.8014e-05,1.58e-06,0.0,0 STARLINK-3550,1 52373U 22045AU  23231.22740380  .00000158  00000-0  28014-4 0  9993,2 52373  53.2155  59.5932 0001407  83.9112 276.2040 15.08832450 75001,6917.903,95.438,540.742,538.795,0.0
52373.0,STARLINK-3550,PAYLOAD,2023-08-20 00:32:04,15.08843366,0.0001319,53.2162,56.0243,90.6644,269.4499,9.8309e-05,1.277e-05,0.0,0 STARLINK-3550,1 52373U 22045AU  23232.02227723  .00001277  00000-0  98309-4 0  9990,2 52373  53.2162  56.0243 0001319  90.6644 269.4499 15.08843366 75126,6917.87,95.437,540.648,538.823,0.0
52373.0,STARLINK-3550,PAYLOAD,2023-08-21 05:09:01,15.08849279,0.0001065,53.2176,50.6734,77.3419,282.7692,-3.3771e-05,-8.25e-06,0.0,0 STARLINK-3550,1 52373U 22045AU  23233.21459798 -.00000825  00000-0 -33771-4 0  9993,2 52373  53.2176  50.6734 0001065  77.3419 282.7692 15.08849279 75308,6917.852,95.437,540.454,538.98,0.0
52373.0,STARLINK-3550,PAYLOAD,2023-08-21 19:27:29,15.08841264,0.0001259,53.2181,47.9957,79.9269,280.1865,4.1655e-05,3.75e-06,0.0,0 STARLINK-3550,1 52373U 22045AU  23233.81076275  .00000375  00000-0  41655-4 0  9992,2 52373  53.2181  47.9957 0001259  79.9269 280.1865 15.08841264 75395,6917.877,95.437,540.612,538.871,0.0
52373.0,STARLINK-3550,PAYLOAD,2023-08-22 22:29:02,15.08853522,0.0001233,53.2185,42.9408,89.6775,270.4359,-0.00011631,-2.139e-05,0.0,0 STARLINK-3550,1 52373U 22045AU  23234.93683647 -.00002139  00000-0 -11631-3 0  9995,2 52373  53.2185  42.9408 0001233  89.6775 270.4359 15.08853522 75566,6917.839,95.437,540.557,538.851,0.0
52373.0,STARLINK-3550,PAYLOAD,2023-08-24 14:13:41,15.08838191,0.0001117,53.2163,35.5079,93.1156,266.9964,-3.027e-06,-3.36e-06,0.0,0 STARLINK-3550,1 52373U 22045AU  23236.59284302 -.00000336  00000-0 -30270-5 0  9993,2 52373  53.2163  35.5079 0001117  93.1156 266.9964 15.08838191 75813,6917.886,95.438,540.524,538.978,0.0
52373.0,STARLINK-3550,PAYLOAD,2023-08-25 10:53:42,15.08836161,0.0001154,53.2185,31.639,86.3352,273.7772,3.9983e-05,3.49e-06,0.0,0 STARLINK-3550,1 52373U 22045AU  23237.45396476  .00000349  00000-0  39983-4 0  9996,2 52373  53.2185  31.6390 0001154  86.3352 273.7772 15.08836161 75945,6917.892,95.438,540.555,538.959,0.0
52373.0,STARLINK-3550,PAYLOAD,2023-08-25 17:15:14,15.08841067,0.0001194,53.2184,30.4495,92.1526,267.9603,2.2194e-05,6.5e-07,0.0,0 STARLINK-3550,1 52373U 22045AU  23237.71892286  .00000065  00000-0  22194-4 0  9996,2 52373  53.2184  30.4495 0001194  92.1526 267.9603 15.08841067 75982,6917.877,95.437,540.568,538.916,0.0
52373.0,STARLINK-3550,PAYLOAD,2023-08-26 09:09:06,15.08832339,0.0001246,53.2182,27.4769,79.4692,280.644,4.2676e-05,3.91e-06,0.0,0 STARLINK-3550,1 52373U 22045AU  23238.38133006  .00000391  00000-0  42676-4 0  9997,2 52373  53.2182  27.4769 0001246  79.4692 280.6440 15.08832339 76085,6917.904,95.438,540.631,538.907,0.0
52373.0,STARLINK-3550,PAYLOAD,2023-08-26 12:19:53,15.08833677,0.0001164,53.2184,26.8829,72.9852,287.1267,5.6198e-05,6.07e-06,0.0,0 STARLINK-3550,1 52373U 22045AU  23238.51380908  .00000607  00000-0  56198-4 0  9991,2 52373  53.2184  26.8829 0001164  72.9852 287.1267 15.08833677 76100,6917.9,95.438,540.57,538.959,0.0
52373.0,STARLINK-3550,PAYLOAD,2023-08-26 15:30:39,15.08837731,0.000113,53.2179,26.2883,86.7051,273.407,8.2241e-05,1.021e-05,0.0,0 STARLINK-3550,1 52373U 22045AU  23238.64628585  .00001021  00000-0  82241-4 0  9990,2 52373  53.2179  26.2883 0001130  86.7051 273.4070 15.08837731 76122,6917.887,95.438,540.534,538.971,0.0
52373.0,STARLINK-3550,PAYLOAD,2023-08-27 18:32:12,15.08841012,0.0001221,53.2181,21.2331,81.0481,279.0649,7.666e-05,9.32e-06,0.0,0 STARLINK-3550,1 52373U 22045AU  23239.77236734  .00000932  00000-0  76660-4 0  9994,2 52373  53.2181  21.2331 0001221  81.0481 279.0649 15.08841012 76293,6917.877,95.437,540.587,538.898,0.0
52373.0,STARLINK-3550,PAYLOAD,2023-08-28 02:29:08,15.08834458,0.0001189,53.2183,19.7457,86.184,273.9288,2.4712e-06,-2.48e-06,0.0,0 STARLINK-3550,1 52373U 22045AU  23240.10357393 -.00000248  00000-0  24712-5 0  9991,2 52373  53.2183  19.7457 0001189  86.1840 273.9288 15.08834458 76348,6917.897,95.438,540.585,538.94,0.0
52373.0,STARLINK-3550,PAYLOAD,2023-08-28 18:23:00,15.08838766,0.0001305,53.2185,16.7731,79.1779,280.9359,4.4383e-05,4.19e-06,0.0,0 STARLINK-3550,1 52373U 22045AU  23240.76597335  .00000419  00000-0  44383-4 0  9999,2 52373  53.2185  16.7731 0001305  79.1779 280.9359 15.08838766 76449,6917.884,95.438,540.652,538.846,0.0
52373.0,STARLINK-3550,PAYLOAD,2023-08-29 02:19:55,15.08841093,0.0001338,53.2185,15.2867,75.7501,284.364,8.4509e-05,1.057e-05,0.0,0 STARLINK-3550,1 52373U 22045AU  23241.09717123  .00001057  00000-0  84509-4 0  9998,2 52373  53.2185  15.2867 0001338  75.7501 284.3640 15.08841093 76497,6917.877,95.437,540.668,538.816,0.0
52373.0,STARLINK-3550,PAYLOAD,2023-08-29 16:38:23,15.0884882,0.0001229,53.2179,12.6105,81.9326,278.1806,0.00015423,2.168e-05,0.0,0 STARLINK-3550,1 52373U 22045AU  23241.69332432  .00002168  00000-0  15423-3 0  9992,2 52373  53.2179  12.6105 0001229  81.9326 278.1806 15.08848820 76589,6917.853,95.437,540.569,538.868,0.0
52373.0,STARLINK-3550,PAYLOAD,2023-08-30 14:53:47,15.08840157,0.0001115,53.2186,8.4464,105.7268,254.3847,9.7313e-05,1.261e-05,0.0,0 STARLINK-3550,1 52373U 22045AU  23242.62068989  .00001261  00000-0  97313-4 0  9991,2 52373  53.2186   8.4464 0001115 105.7268 254.3847 15.08840157 76724,6917.88,95.438,540.516,538.974,0.0
52373.0,STARLINK-3550,PAYLOAD,2023-08-31 11:33:47,15.08847094,0.000106,53.2189,4.5813,83.9389,276.1723,7.9189e-05,9.73e-06,0.0,0 STARLINK-3550,1 52373U 22045AU  23243.48180534  .00000973  00000-0  79189-4 0  9997,2 52373  53.2189   4.5813 0001060  83.9389 276.1723 15.08847094 76858,6917.859,95.437,540.457,538.99,0.0
52373.0,STARLINK-3550,PAYLOAD,2023-09-01 11:24:38,15.08760241,2.92e-05,53.2174,0.1268,339.7605,20.3376,0.00041322,6.281e-05,0.0,0 STARLINK-3550,1 52373U 22045AU  23244.47545111  .00006281  00000-0  41322-3 0  9998,2 52373  53.2174   0.1268 0000292 339.7605  20.3376 15.08760241 77006,6918.124,95.443,540.191,539.787,0.0
52373.0,STARLINK-3550,PAYLOAD,2023-09-01 14:35:23,15.08788226,3.82e-05,53.2176,359.5305,249.7949,110.3002,0.00066368,0.00010276,0.0,0 STARLINK-3550,1 52373U 22045AU  23244.60791111  .00010276  00000-0  66368-3 0  9992,2 52373  53.2176 359.5305 0000382 249.7949 110.3002 15.08788226 77023,6918.039,95.441,540.168,539.639,0.0
52373.0,STARLINK-3550,PAYLOAD,2023-09-02 08:04:36,15.08836562,0.0001274,53.2177,356.2562,93.6368,266.477,6.2201e-05,7.02e-06,0.0,0 STARLINK-3550,1 52373U 22045AU  23245.33653299  .00000702  00000-0  62201-4 0  9993,2 52373  53.2177 356.2562 0001274  93.6368 266.4770 15.08836562 77139,6917.891,95.438,540.637,538.875,0.0
52373.0,STARLINK-3550,PAYLOAD,2023-09-02 12:50:45,15.08842371,0.0001446,53.2174,355.3644,88.3356,271.7801,5.2966e-05,5.55e-06,0.0,0 STARLINK-3550,1 52373U 22045AU  23245.53524995  .00000555  00000-0  52966-4 0  9998,2 52373  53.2174 355.3644 0001446  88.3356 271.7801 15.08842371 77168,6917.873,95.437,540.738,538.738,0.0
52373.0,STARLINK-3550,PAYLOAD,2023-09-02 14:26:08,15.0884245,0.0001344,53.2176,355.0664,88.4484,271.6662,0.00010805,1.432e-05,0.0,0 STARLINK-3550,1 52373U 22045AU  23245.60148882  .00001432  00000-0  10805-3 0  9993,2 52373  53.2176 355.0664 0001344  88.4484 271.6662 15.08842450 77172,6917.873,95.437,540.668,538.808,0.0
52373.0,STARLINK-3550,PAYLOAD,2023-09-02 23:58:27,15.08848883,0.0001363,53.2178,353.2822,94.6213,265.4935,5.792e-05,6.34e-06,0.0,0 STARLINK-3550,1 52373U 22045AU  23245.99892676  .00000634  00000-0  57920-4 0  9995,2 52373  53.2178 353.2822 0001363  94.6213 265.4935 15.08848883 77237,6917.853,95.437,540.661,538.775,0.0
52373.0,STARLINK-3550,PAYLOAD,2023-09-03 14:16:54,15.08857027,0.0001298,53.2176,350.6067,89.3499,270.7642,0.00023848,3.511e-05,0.0,0 STARLINK-3550,1 52373U 22045AU  23246.59507829  .00003511  00000-0  23848-3 0  9993,2 52373  53.2176 350.6067 0001298  89.3499 270.7642 15.08857027 77325,6917.828,95.436,540.591,538.795,0.0
52373.0,STARLINK-3550,PAYLOAD,2023-09-03 23:49:14,15.08842483,0.0001163,53.2168,348.822,90.1291,269.9835,5.8518e-05,6.44e-06,0.0,0 STARLINK-3550,1 52373U 22045AU  23246.99252455  .00000644  00000-0  58518-4 0  9996,2 52373  53.2168 348.8220 0001163  90.1291 269.9835 15.08842483 77387,6917.873,95.437,540.542,538.933,0.0
52373.0,STARLINK-3550,PAYLOAD,2023-09-04 09:21:34,15.08820202,0.0001656,53.2174,347.0371,88.5468,271.5713,-0.00030325,-5.108e-05,0.0,0 STARLINK-3550,1 52373U 22045AU  23247.38997929 -.00005108  00000-0 -30325-3 0  9999,2 52373  53.2174 347.0371 0001656  88.5468 271.5713 15.08820202 77442,6917.941,95.439,540.952,538.66,0.0
52373.0,STARLINK-3550,PAYLOAD,2023-09-04 23:40:02,15.08834894,0.000126,53.2184,344.3623,96.3358,263.7778,-4.8664e-06,-3.65e-06,0.0,0 STARLINK-3550,1 52373U 22045AU  23247.98613985 -.00000365  00000-0 -48664-5 0  9999,2 52373  53.2184 344.3623 0001260  96.3358 263.7778 15.08834894 77535,6917.896,95.438,540.633,538.889,0.0
52373.0,STARLINK-3550,PAYLOAD,2023-09-05 09:12:20,15.08839641,0.0001291,53.2176,342.5769,100.2657,259.8481,7.9058e-05,9.71e-06,0.0,0 STARLINK-3550,1 52373U 22045AU  23248.38357406  .00000971  00000-0  79058-4 0  9998,2 52373  53.2176 342.5769 0001291 100.2657 259.8481 15.08839641 77596,6917.881,95.438,540.64,538.853,0.0
